STARLINK-36713          
1 67701U 26025J   26066.80868713  .00381969  00000+0  24414-2 0  9999
2 67701  97.2839 178.2886 0001935  46.9643 313.1784 15.75261678  5652
STARLINK-36695          
1 67702U 26025K   26066.81079905  .00099857  00000+0  66257-3 0  9992
2 67702  97.2867 178.2866 0001614 103.7340 256.4105 15.75189001  5646
STARLINK-36630          
1 67703U 26025L   26066.91668981 -.00100498  00000+0 -68005-3 0  9991
2 67703  97.2841 178.4935 0001481  99.2884   4.8472 15.75216746  5573
STARLINK-36338          
1 67704U 26025M   26066.91633194  .00186689  00000+0  12238-2 0  9990
2 67704  97.2826 178.4477 0002100  68.7910 291.3580 15.75219160  5664
STARLINK-36316          
1 67705U 26025N   26066.79916070  .00607056  00000+0  37474-2 0  9999
2 67705  97.2838 178.3028 0002183  25.4412 334.6961 15.75444909  5640
STARLINK-36707          
1 67706U 26025P   26066.77940096  .00607242  00000+0  37486-2 0  9993
2 67706  97.2845 178.3284 0002395  33.2356 326.9059 15.75444322  5643
STARLINK-36645          
1 67707U 26025Q   26066.93008977  .00454529  00000+0  28719-2 0  9992
2 67707  97.2855 178.4296 0000985 119.7377 240.3986 15.75325697  5668
STARLINK-36287          
1 67708U 26025R   26066.91668981 -.00000933  00000+0 -53903-5 0  9992
2 67708  97.2844 178.5027 0001628  86.1547  41.9970 15.75173646  5732
STARLINK-36698          
1 67709U 26025S   26066.91668981  .00038256  00000+0  25668-3 0  9995
2 67709  97.2845 178.5227 0001364  89.8877  82.2568 15.75147172  5577
STARLINK-36344          
1 67710U 26025T   26067.02927646  .00384201  00000+0  24593-2 0  9995
2 67710  97.2842 178.6009 0001899  76.2482 283.8994 15.75220619  5693
STARLINK-36687          
1 67711U 26025U   26066.94202827  .00218769  00000+0  11115-2 0  9994
2 67711  97.2840 178.5657 0001576  90.5918 269.5531 15.80873786  5687
STARLINK-36705          
1 67712U 26025V   26066.78327785  .00405216  00000+0  25711-2 0  9990
2 67712  97.2858 178.3191 0001282  26.5073 333.6257 15.75365956  5646
